{
"type": "FeatureCollection",
"name": "MarcosJuarezAOI",
"crs": { "type": "name", "properties": { "name": "urn:ogc:def:crs:OGC:1.3:CRS84" } },
"features": [
{ "type": "Feature", "properties": { "id": 1 }, "geometry": { "type": "MultiPolygon", "coordinates": [ [ [ [ -62.275899145821164, -32.044480624183421 ], [ -62.275899145821164, -31.952427172725681 ], [ -61.999738791447932, -32.205574164234477 ], [ -61.677551711345828, -32.907481731599781 ], [ -62.506032774465524, -33.966096423363844 ], [ -62.851233217432068, -33.885549653338316 ], [ -62.701646358813235, -33.275695537430764 ], [ -62.609592907355491, -33.080081953083052 ], [ -62.356445915846692, -32.136534075641173 ], [ -62.275899145821164, -32.044480624183421 ] ] ] ] } }
]
}
